{
  "type": "FeatureCollection",
  "features": [
    {"type": "Feature", "geometry": {"type": "LineString", "coordinates": [[-180, -90 ], [-180, 90]]}, "properties": {"name": "Lon -180"}},
    {"type": "Feature", "geometry": {"type": "LineString", "coordinates": [[-165, -90 ], [-165, 90]]}, "properties": {"name": "Lon -165"}},
    {"type": "Feature", "geometry": {"type": "LineString", "coordinates": [[-150, -90 ], [-150, 90]]}, "properties": {"name": "Lon -150"}},
    {"type": "Feature", "geometry": {"type": "LineString", "coordinates": [[-135, -90 ], [-135, 90]]}, "properties": {"name": "Lon -135"}},
    {"type": "Feature", "geometry": {"type": "LineString", "coordinates": [[-120, -90 ], [-120, 90]]}, "properties": {"name": "Lon -120"}},
    {"type": "Feature", "geometry": {"type": "LineString", "coordinates": [[-105, -90 ], [-105, 90]]}, "properties": {"name": "Lon -105"}},
    {"type": "Feature", "geometry": {"type": "LineString", "coordinates": [[-90,  -90 ], [-90,  90]]}, "properties": {"name": "Lon -90" }},
    {"type": "Feature", "geometry": {"type": "LineString", "coordinates": [[-75,  -90 ], [-75,  90]]}, "properties": {"name": "Lon -75" }},
    {"type": "Feature", "geometry": {"type": "LineString", "coordinates": [[-60,  -90 ], [-60,  90]]}, "properties": {"name": "Lon -60" }},
    {"type": "Feature", "geometry": {"type": "LineString", "coordinates": [[-45,  -90 ], [-45,  90]]}, "properties": {"name": "Lon -45" }},
    {"type": "Feature", "geometry": {"type": "LineString", "coordinates": [[-30,  -90 ], [-30,  90]]}, "properties": {"name": "Lon -30" }},
    {"type": "Feature", "geometry": {"type": "LineString", "coordinates": [[-15,  -90 ], [-15,  90]]}, "properties": {"name": "Lon -15" }},
    {"type": "Feature", "geometry": {"type": "LineString", "coordinates": [[0,    -90 ], [0,    90]]}, "properties": {"name": "Lon 0"   }},
    {"type": "Feature", "geometry": {"type": "LineString", "coordinates": [[15,   -90 ], [15,   90]]}, "properties": {"name": "Lon 15"  }},
    {"type": "Feature", "geometry": {"type": "LineString", "coordinates": [[30,   -90 ], [30,   90]]}, "properties": {"name": "Lon 30"  }},
    {"type": "Feature", "geometry": {"type": "LineString", "coordinates": [[45,   -90 ], [45,   90]]}, "properties": {"name": "Lon 45"  }},
    {"type": "Feature", "geometry": {"type": "LineString", "coordinates": [[60,   -90 ], [60,   90]]}, "properties": {"name": "Lon 60"  }},
    {"type": "Feature", "geometry": {"type": "LineString", "coordinates": [[75,   -90 ], [75,   90]]}, "properties": {"name": "Lon 75"  }},
    {"type": "Feature", "geometry": {"type": "LineString", "coordinates": [[90,   -90 ], [90,   90]]}, "properties": {"name": "Lon 90"  }},
    {"type": "Feature", "geometry": {"type": "LineString", "coordinates": [[105,  -90 ], [105,  90]]}, "properties": {"name": "Lon 105" }},
    {"type": "Feature", "geometry": {"type": "LineString", "coordinates": [[120,  -90 ], [120,  90]]}, "properties": {"name": "Lon 120" }},
    {"type": "Feature", "geometry": {"type": "LineString", "coordinates": [[135,  -90 ], [135,  90]]}, "properties": {"name": "Lon 135" }},
    {"type": "Feature", "geometry": {"type": "LineString", "coordinates": [[150,  -90 ], [150,  90]]}, "properties": {"name": "Lon 150" }},
    {"type": "Feature", "geometry": {"type": "LineString", "coordinates": [[165,  -90 ], [165,  90]]}, "properties": {"name": "Lon 165" }},
    {"type": "Feature", "geometry": {"type": "LineString", "coordinates": [[180,  -90 ], [180,  90]]}, "properties": {"name": "Lon 180" }},

    {"type": "Feature", "geometry": {"type": "LineString", "coordinates": [[-180, -90 ], [180, -90]]}, "properties": {"name": "Lat -90" }},
    {"type": "Feature", "geometry": {"type": "LineString", "coordinates": [[-180, -75 ], [180, -75]]}, "properties": {"name": "Lat -75" }},
    {"type": "Feature", "geometry": {"type": "LineString", "coordinates": [[-180, -60 ], [180, -60]]}, "properties": {"name": "Lat -60" }},
    {"type": "Feature", "geometry": {"type": "LineString", "coordinates": [[-180, -45 ], [180, -45]]}, "properties": {"name": "Lat -45" }},
    {"type": "Feature", "geometry": {"type": "LineString", "coordinates": [[-180, -30 ], [180, -30]]}, "properties": {"name": "Lat -30" }},
    {"type": "Feature", "geometry": {"type": "LineString", "coordinates": [[-180, -15 ], [180, -15]]}, "properties": {"name": "Lat -15" }},
    {"type": "Feature", "geometry": {"type": "LineString", "coordinates": [[-180, 0   ], [180, 0  ]]}, "properties": {"name": "Lat 0"   }},
    {"type": "Feature", "geometry": {"type": "LineString", "coordinates": [[-180, 15  ], [180, 15 ]]}, "properties": {"name": "Lat 15"  }},
    {"type": "Feature", "geometry": {"type": "LineString", "coordinates": [[-180, 30  ], [180, 30 ]]}, "properties": {"name": "Lat 30"  }},
    {"type": "Feature", "geometry": {"type": "LineString", "coordinates": [[-180, 45  ], [180, 45 ]]}, "properties": {"name": "Lat 45"  }},
    {"type": "Feature", "geometry": {"type": "LineString", "coordinates": [[-180, 60  ], [180, 60 ]]}, "properties": {"name": "Lat 60"  }},
    {"type": "Feature", "geometry": {"type": "LineString", "coordinates": [[-180, 75  ], [180, 75 ]]}, "properties": {"name": "Lat 75"  }},
    {"type": "Feature", "geometry": {"type": "LineString", "coordinates": [[-180, 90  ], [180, 90 ]]}, "properties": {"name": "Lat 90"  }}
  ]
}
